NORAD_CAT_ID,OBJECT_NAME,OBJECT_TYPE,EPOCH,MEAN_MOTION,ECCENTRICITY,INCLINATION,RA_OF_ASC_NODE,ARG_OF_PERICENTER,MEAN_ANOMALY,BSTAR,MEAN_MOTION_DOT,MEAN_MOTION_DDOT,TLE_LINE0,TLE_LINE1,TLE_LINE2,SEMIMAJOR_AXIS,PERIOD,APOGEE,PERIGEE,DECAYED
53803.0,STARLINK-4727,PAYLOAD,2023-11-24 11:00:25,15.08827981,0.0001842,53.2199,43.1546,94.7363,265.3839,-0.00016829,-2.965e-05,0.0,0 STARLINK-4727,1 53803U 22111AG  23328.45862872 -.00002965  00000-0 -16829-3 0  9999,2 53803  53.2199  43.1546 0001842  94.7363 265.3839 15.08827981 66973,6917.917,95.438,541.056,538.508,0.0
53803.0,STARLINK-4727,PAYLOAD,2023-11-24 14:11:12,15.08834468,0.0001669,53.2207,42.563,81.3299,278.7882,-4.1123e-05,-9.42e-06,0.0,0 STARLINK-4727,1 53803U 22111AG  23328.59111371 -.00000942  00000-0 -41123-4 0  9994,2 53803  53.2207  42.5630 0001669  81.3299 278.7882 15.08834468 67804,6917.897,95.438,540.917,538.608,0.0
53803.0,STARLINK-4727,PAYLOAD,2023-11-25 12:26:35,15.08848887,0.0001663,53.2203,38.3949,83.4134,276.7048,0.00014362,1.999e-05,0.0,0 STARLINK-4727,1 53803U 22111AG  23329.51846616  .00001999  00000-0  14362-3 0  9999,2 53803  53.2203  38.3949 0001663  83.4134 276.7048 15.08848887 67948,6917.853,95.437,540.869,538.568,0.0
53803.0,STARLINK-4727,PAYLOAD,2023-11-26 10:41:58,15.08865378,0.0001854,53.219,34.237,76.3925,283.7273,0.000545,8.402e-05,0.0,0 STARLINK-4727,1 53803U 22111AG  23330.44582052  .00008402  00000-0  54500-3 0  9998,2 53803  53.2190  34.2370 0001854  76.3925 283.7273 15.08865378 68085,6917.803,95.436,540.95,538.385,0.0
53803.0,STARLINK-4727,PAYLOAD,2023-11-27 04:11:14,15.08836023,0.0001743,53.2186,30.9631,97.9704,262.1486,-0.00024932,-4.253e-05,0.0,0 STARLINK-4727,1 53803U 22111AG  23331.17447160 -.00004253  00000-0 -24932-3 0  9997,2 53803  53.2186  30.9631 0001743  97.9704 262.1486 15.08836023 67388,6917.893,95.438,540.963,538.552,0.0
53803.0,STARLINK-4727,PAYLOAD,2023-11-27 10:32:47,15.08816912,0.0001838,53.2188,29.772,113.3504,246.7682,-0.00056004,-9.185e-05,0.0,0 STARLINK-4727,1 53803U 22111AG  23331.43943836 -.00009185  00000-0 -56004-3 0  9991,2 53803  53.2188  29.7720 0001838 113.3504 246.7682 15.08816912 67427,6917.951,95.439,541.087,538.544,0.0
53803.0,STARLINK-4727,PAYLOAD,2023-11-28 10:23:34,15.08851305,0.0002074,53.2193,25.3133,112.3615,247.7597,0.0003893,5.915e-05,0.0,0 STARLINK-4727,1 53803U 22111AG  23332.43303289  .00005915  00000-0  38930-3 0  9997,2 53803  53.2193  25.3133 0002074 112.3615 247.7597 15.08851305 67575,6917.846,95.437,541.146,538.276,0.0
53803.0,STARLINK-4727,PAYLOAD,2023-11-28 13:34:20,15.08855609,0.0001819,53.2185,24.715,113.9044,246.2138,0.00052109,8.018e-05,0.0,0 STARLINK-4727,1 53803U 22111AG  23332.56551122  .00008018  00000-0  52109-3 0  9993,2 53803  53.2185  24.7150 0001819 113.9044 246.2138 15.08855609 68406,6917.833,95.437,540.956,538.439,0.0
53803.0,STARLINK-4727,PAYLOAD,2023-11-29 03:52:49,15.08839973,0.0002057,53.2185,22.0398,111.3937,248.7275,0.00045606,6.978e-05,0.0,0 STARLINK-4727,1 53803U 22111AG  23333.16168278  .00006978  00000-0  45606-3 0  9993,2 53803  53.2185  22.0398 0002057 111.3937 248.7275 15.08839973 67683,6917.88,95.438,541.168,538.322,0.0
53803.0,STARLINK-4727,PAYLOAD,2023-11-29 10:14:21,15.08846019,0.0001918,53.219,20.85,110.1692,249.9507,0.00043898,6.706e-05,0.0,0 STARLINK-4727,1 53803U 22111AG  23333.42664022  .00006706  00000-0  43898-3 0  9990,2 53803  53.2190  20.8500 0001918 110.1692 249.9507 15.08846019 68535,6917.862,95.437,541.054,538.4,0.0
53803.0,STARLINK-4727,PAYLOAD,2023-11-30 08:29:45,15.08849768,0.0001899,53.219,16.6861,102.0439,258.0766,8.051e-05,9.94e-06,0.0,0 STARLINK-4727,1 53803U 22111AG  23334.35399368  .00000994  00000-0  80510-4 0  9997,2 53803  53.2190  16.6861 0001899 102.0439 258.0766 15.08849768 67862,6917.851,95.437,541.029,538.402,0.0
53803.0,STARLINK-4727,PAYLOAD,2023-12-01 01:59:00,15.08840483,0.0001853,53.2185,13.4223,85.3976,274.7228,7.6409e-05,9.28e-06,0.0,0 STARLINK-4727,1 53803U 22111AG  23335.08263934  .00000928  00000-0  76409-4 0  9996,2 53803  53.2185  13.4223 0001853  85.3976 274.7228 15.08840483 67977,6917.879,95.438,541.026,538.462,0.0
53803.0,STARLINK-4727,PAYLOAD,2023-12-01 08:20:32,15.08847109,0.0001742,53.219,12.2256,106.3589,253.7595,0.00014954,2.093e-05,0.0,0 STARLINK-4727,1 53803U 22111AG  23335.34759704  .00002093  00000-0  14954-3 0  9991,2 53803  53.2190  12.2256 0001742 106.3589 253.7595 15.08847109 68828,6917.859,95.437,540.929,538.519,0.0
53803.0,STARLINK-4727,PAYLOAD,2023-12-02 11:22:03,15.08894593,0.0001838,53.2195,7.1738,79.6108,280.5091,0.0010231,0.00016056,0.0,0 STARLINK-4727,1 53803U 22111AG  23336.47365260  .00016056  00000-0  10231-2 0  9993,2 53803  53.2195   7.1738 0001838  79.6108 280.5091 15.08894593 68183,6917.714,95.434,540.85,538.307,0.0
53803.0,STARLINK-4727,PAYLOAD,2023-12-03 01:40:34,15.08804954,0.0001549,53.22,4.4981,78.4323,281.6843,-0.00078044,-0.00012675,0.0,0 STARLINK-4727,1 53803U 22111AG  23337.06984470 -.00012675  00000-0 -78044-3 0  9991,2 53803  53.2200   4.4981 0001549  78.4323 281.6843 15.08804954 68274,6917.988,95.44,540.924,538.781,0.0
53803.0,STARLINK-4727,PAYLOAD,2023-12-03 09:37:30,15.08813663,0.0001927,53.2204,3.0104,66.6474,293.4721,-0.00049408,-8.137e-05,0.0,0 STARLINK-4727,1 53803U 22111AG  23337.40104973 -.00008137  00000-0 -49408-3 0  9991,2 53803  53.2204   3.0104 0001927  66.6474 293.4721 15.08813663 68325,6917.961,95.439,541.159,538.493,0.0
53803.0,STARLINK-4727,PAYLOAD,2023-12-04 01:31:22,15.08826374,0.000172,53.2199,0.0378,72.2095,287.9085,-0.00024619,-4.203e-05,0.0,0 STARLINK-4727,1 53803U 22111AG  23338.06345249 -.00004203  00000-0 -24619-3 0  9994,2 53803  53.2199   0.0378 0001720  72.2095 287.9085 15.08826374 68426,6917.922,95.438,540.977,538.597,0.0
53803.0,STARLINK-4727,PAYLOAD,2023-12-04 07:52:54,15.08835843,0.0002006,53.2194,358.8521,63.1563,296.9634,-0.00012287,-2.243e-05,0.0,0 STARLINK-4727,1 53803U 22111AG  23338.32841362 -.00002243  00000-0 -12287-3 0  9990,2 53803  53.2194 358.8521 0002006  63.1563 296.9634 15.08835843 69277,6917.893,95.438,541.146,538.37,0.0
53803.0,STARLINK-4727,PAYLOAD,2023-12-05 07:43:41,15.0887104,0.0001779,53.2191,354.3877,76.4003,283.7187,0.0011368,0.00017866,0.0,0 STARLINK-4727,1 53803U 22111AG  23339.32200976  .00017866  00000-0  11368-2 0  9994,2 53803  53.2191 354.3877 0001779  76.4003 283.7187 15.08871040 68614,6917.786,95.436,540.881,538.42,0.0
53803.0,STARLINK-4727,PAYLOAD,2023-12-06 04:23:41,15.08856494,0.0001956,53.2185,350.5203,82.1517,277.9697,0.00014424,2.009e-05,0.0,0 STARLINK-4727,1 53803U 22111AG  23340.18312332  .00002009  00000-0  14424-3 0  9990,2 53803  53.2185 350.5203 0001956  82.1517 277.9697 15.08856494 68740,6917.83,95.437,541.048,538.342,0.0
53803.0,STARLINK-4727,PAYLOAD,2023-12-06 07:34:28,15.08857747,0.0002023,53.2184,349.9256,83.9262,276.1961,0.0001979,2.864e-05,0.0,0 STARLINK-4727,1 53803U 22111AG  23340.31560197  .00002864  00000-0  19790-3 0  9999,2 53803  53.2184 349.9256 0002023  83.9262 276.1961 15.08857747 69570,6917.826,95.436,541.091,538.292,0.0
53803.0,STARLINK-4727,PAYLOAD,2023-12-07 04:14:28,15.08842185,0.0002225,53.2189,346.0625,101.1795,258.9447,0.00019033,2.742e-05,0.0,0 STARLINK-4727,1 53803U 22111AG  23341.17672371  .00002742  00000-0  19033-3 0  9997,2 53803  53.2189 346.0625 0002225 101.1795 258.9447 15.08842185 68892,6917.874,95.437,541.278,538.199,0.0
53803.0,STARLINK-4727,PAYLOAD,2023-12-07 07:25:15,15.08837052,0.0002132,53.2183,345.4666,91.711,268.4127,-0.00010886,-2.02e-05,0.0,0 STARLINK-4727,1 53803U 22111AG  23341.30920593 -.00002020  00000-0 -10886-3 0  9992,2 53803  53.2183 345.4666 0002132  91.7110 268.4127 15.08837052 69727,6917.889,95.438,541.229,538.28,0.0
53803.0,STARLINK-4727,PAYLOAD,2023-12-08 07:16:02,15.08841866,0.000214,53.2183,341.0073,94.5969,265.5268,9.4942e-05,1.223e-05,0.0,0 STARLINK-4727,1 53803U 22111AG  23342.30280510  .00001223  00000-0  94942-4 0  9999,2 53803  53.2183 341.0073 0002140  94.5969 265.5268 15.08841866 69871,6917.875,95.437,541.22,538.259,0.0
53803.0,STARLINK-4727,PAYLOAD,2023-12-09 03:56:03,15.08837688,0.0002032,53.2187,337.1354,85.3041,274.8183,0.00012325,1.674e-05,0.0,0 STARLINK-4727,1 53803U 22111AG  23343.16392964  .00001674  00000-0  12325-3 0  9995,2 53803  53.2187 337.1354 0002032  85.3041 274.8183 15.08837688 69193,6917.887,95.438,541.158,538.347,0.0
53803.0,STARLINK-4727,PAYLOAD,2023-12-09 08:42:12,15.08842538,0.000208,53.2191,336.2449,89.3098,270.8132,0.00016632,2.36e-05,0.0,0 STARLINK-4727,1 53803U 22111AG  23343.36264646  .00002360  00000-0  16632-3 0  9990,2 53803  53.2191 336.2449 0002080  89.3098 270.8132 15.08842538 70037,6917.873,95.437,541.177,538.299,0.0
53803.0,STARLINK-4727,PAYLOAD,2023-12-10 08:33:00,15.0883849,0.0002374,53.2201,331.7843,91.7513,268.3751,-5.2397e-05,-1.122e-05,0.0,0 STARLINK-4727,1 53803U 22111AG  23344.35625572 -.00001122  00000-0 -52397-4 0  9995,2 53803  53.2201 331.7843 0002374  91.7513 268.3751 15.08838490 69378,6917.885,95.438,541.392,538.108,0.0
53803.0,STARLINK-4727,PAYLOAD,2023-12-11 06:48:24,15.08843002,0.0002027,53.219,327.6262,84.9359,275.1865,8.8562e-05,1.122e-05,0.0,0 STARLINK-4727,1 53803U 22111AG  23345.28361278  .00001122  00000-0  88562-4 0  9999,2 53803  53.2190 327.6262 0002027  84.9359 275.1865 15.08843002 70325,6917.871,95.437,541.138,538.334,0.0
53803.0,STARLINK-4727,PAYLOAD,2023-12-12 03:28:25,15.08831038,0.0001975,53.2189,323.762,86.0845,274.0373,0.00024631,3.633e-05,0.0,0 STARLINK-4727,1 53803U 22111AG  23346.14473562  .00003633  00000-0  24631-3 0  9990,2 53803  53.2189 323.7620 0001975  86.0845 274.0373 15.08831038 69643,6917.908,95.438,541.139,538.406,0.0
53803.0,STARLINK-4727,PAYLOAD,2023-12-12 05:03:48,15.08842283,0.0002102,53.2194,323.4639,79.8012,280.3217,0.00013962,1.935e-05,0.0,0 STARLINK-4727,1 53803U 22111AG  23346.21097454  .00001935  00000-0  13962-3 0  9998,2 53803  53.2194 323.4639 0002102  79.8012 280.3217 15.08842283 70468,6917.873,95.437,541.193,538.284,0.0
